{"type": "FeatureCollection", "features": [ {"type": "Feature", "properties": {"norad_id": 41556, "name": "ZIYUAN 3-02 (ZY 3-02)", "group": "resource", "lat": -38.94167976017339, "lon": -110.94006417588638, "alt_km": 501.4467711294983, "timestamp": "2025-12-27T03:58:43.835400+00:00", "meta": {"OBJECT_NAME": "ZIYUAN 3-02 (ZY 3-02)", "OBJECT_ID": "2016-033A", "EPOCH": "2025-12-26T20:42:12.797568", "MEAN_MOTION": 15.21257111, "ECCENTRICITY": 0.0011576, "INCLINATION": 97.4022, "RA_OF_ASC_NODE": 74.7925, "ARG_OF_PERICENTER": 193.6153, "MEAN_ANOMALY": 166.4773, "EPHEMERIS_TYPE": 0, "CLASSIFICATION_TYPE": "U", "NORAD_CAT_ID": 41556, "ELEMENT_SET_NO": 999, "REV_AT_EPOCH": 53178, "BSTAR": 0.00034073, "MEAN_MOTION_DOT": 7.558e-05, "MEAN_MOTION_DDOT": 0}, "tle": {"line1": "1 41556U 16033A   25360.86264812  .00007558  00000+0  34073-3 0  9991", "line2": "2 41556  97.4022  74.7925 0011576 193.6153 166.4773 15.21257111531783"}}, "geometry": {"type": "Point", "coordinates": [-110.94006417588638, -38.94167976017339]}}, {"type": "Feature", "properties": {"norad_id": 41599, "name": "CARTOSAT-2C", "group": "resource", "lat": 56.222989332700436, "lon": 46.944780021560256, "alt_km": 497.17653546813744, "timestamp": "2025-12-27T03:58:43.835409+00:00", "meta": {"OBJECT_NAME": "CARTOSAT-2C", "OBJECT_ID": "2016-040A", "EPOCH": "2025-12-26T21:24:23.525280", "MEAN_MOTION": 15.19244615, "ECCENTRICITY": 0.0010588, "INCLINATION": 97.4746, "RA_OF_ASC_NODE": 57.9941, "ARG_OF_PERICENTER": 18.1361, "MEAN_ANOMALY": 342.0249, "EPHEMERIS_TYPE": 0, "CLASSIFICATION_TYPE": "U", "NORAD_CAT_ID": 41599, "ELEMENT_SET_NO": 999, "REV_AT_EPOCH": 52755, "BSTAR": 0.00018495, "MEAN_MOTION_DOT": 3.833e-05, "MEAN_MOTION_DDOT": 0}, "tle": {"line1": "1 41599U 16040A   25360.89193895  .00003833  00000+0  18495-3 0  9993", "line2": "2 41599  97.4746  57.9941 0010588  18.1361 342.0249 15.19244615527550"}}, "geometry": {"type": "Point", "coordinates": [46.944780021560256, 56.222989332700436]}}, {"type": "Feature", "properties": {"norad_id": 41601, "name": "SKYSAT-C1", "group": "resource", "lat": 82.78319357541473, "lon": -67.24438076926847, "alt_km": 460.29109313108165, "timestamp": "2025-12-27T03:58:43.835418+00:00", "meta": {"OBJECT_NAME": "SKYSAT-C1", "OBJECT_ID": "2016-040C", "EPOCH": "2025-12-26T15:02:45.250368", "MEAN_MOTION": 15.32840769, "ECCENTRICITY": 7.87e-05, "INCLINATION": 96.9809, "RA_OF_ASC_NODE": 36.8576, "ARG_OF_PERICENTER": 308.5435, "MEAN_ANOMALY": 51.5738, "EPHEMERIS_TYPE": 0, "CLASSIFICATION_TYPE": "U", "NORAD_CAT_ID": 41601, "ELEMENT_SET_NO": 999, "REV_AT_EPOCH": 53140, "BSTAR": 0.0002948, "MEAN_MOTION_DOT": 9.28e-05, "MEAN_MOTION_DDOT": 0}, "tle": {"line1": "1 41601U 16040C   25360.62691262  .00009280  00000+0  29480-3 0  9997", "line2": "2 41601  96.9809  36.8576 0000787 308.5435  51.5738 15.32840769531407"}}, "geometry": {"type": "Point", "coordinates": [-67.24438076926847, 82.78319357541473]}}, {"type": "Feature", "properties": {"norad_id": 41603, "name": "LAPAN-A3", "group": "resource", "lat": 1.6828753052772114, "lon": 178.4094429016741, "alt_km": 474.273450880215, "timestamp": "2025-12-27T03:58:43.835428+00:00", "meta": {"OBJECT_NAME": "LAPAN-A3", "OBJECT_ID": "2016-040E", "EPOCH": "2025-12-26T20:55:50.680704", "MEAN_MOTION": 15.31669355, "ECCENTRICITY": 0.0008641, "INCLINATION": 97.1437, "RA_OF_ASC_NODE": 357.9152, "ARG_OF_PERICENTER": 274.7043, "MEAN_ANOMALY": 85.3212, "EPHEMERIS_TYPE": 0, "CLASSIFICATION_TYPE": "U", "NORAD_CAT_ID": 41603, "ELEMENT_SET_NO": 999, "REV_AT_EPOCH": 52842, "BSTAR": 0.00015841, "MEAN_MOTION_DOT": 4.774e-05, "MEAN_MOTION_DDOT": 0}, "tle": {"line1": "1 41603U 16040E   25360.87211436  .00004774  00000+0  15841-3 0  9996", "line2": "2 41603  97.1437 357.9152 0008641 274.7043  85.3212 15.31669355528421"}}, "geometry": {"type": "Point", "coordinates": [178.4094429016741, 1.6828753052772114]}}, {"type": "Feature", "properties": {"norad_id": 41604, "name": "BIROS", "group": "resource", "lat": -76.36116358099743, "lon": 63.978772959541075, "alt_km": 296.0647914251358, "timestamp": "2025-12-27T03:58:43.835437+00:00", "meta": {"OBJECT_NAME": "BIROS", "OBJECT_ID": "2016-040F", "EPOCH": "2025-12-26T14:45:38.450304", "MEAN_MOTION": 15.95497863, "ECCENTRICITY": 0.000398, "INCLINATION": 97.0651, "RA_OF_ASC_NODE": 32.6597, "ARG_OF_PERICENTER": 120.7736, "MEAN_ANOMALY": 239.3933, "EPHEMERIS_TYPE": 0, "CLASSIFICATION_TYPE": "U", "NORAD_CAT_ID": 41604, "ELEMENT_SET_NO": 999, "REV_AT_EPOCH": 53093, "BSTAR": 0.00064877, "MEAN_MOTION_DOT": 0.00256097, "MEAN_MOTION_DDOT": 2.75e-05}, "tle": {"line1": "1 41604U 16040F   25360.61502836  .00256097  27500-4  64877-3 0  9995", "line2": "2 41604  97.0651  32.6597 0003980 120.7736 239.3933 15.95497863530932"}}, "geometry": {"type": "Point", "coordinates": [63.978772959541075, -76.36116358099743]}}, {"type": "Feature", "properties": {"norad_id": 41727, "name": "GAOFEN-3", "group": "resource", "lat": 1.0273045731098704, "lon": 6.379789847124161, "alt_km": 753.5518850199205, "timestamp": "2025-12-27T03:58:43.835447+00:00", "meta": {"OBJECT_NAME": "GAOFEN-3", "OBJECT_ID": "2016-049A", "EPOCH": "2025-12-26T21:18:49.521888", "MEAN_MOTION": 14.42216474, "ECCENTRICITY": 0.0001064, "INCLINATION": 98.4042, "RA_OF_ASC_NODE": 6.2582, "ARG_OF_PERICENTER": 55.4171, "MEAN_ANOMALY": 304.7119, "EPHEMERIS_TYPE": 0, "CLASSIFICATION_TYPE": "U", "NORAD_CAT_ID": 41727, "ELEMENT_SET_NO": 999, "REV_AT_EPOCH": 49381, "BSTAR": -1.0439e-05, "MEAN_MOTION_DOT": -7.8e-07, "MEAN_MOTION_DDOT": 0}, "tle": {"line1": "1 41727U 16049A   25360.88807317 -.00000078  00000+0 -10439-4 0  9996", "line2": "2 41727  98.4042   6.2582 0001064  55.4171 304.7119 14.42216474493812"}}, "geometry": {"type": "Point", "coordinates": [6.379789847124161, 1.0273045731098704]}}, {"type": "Feature", "properties": {"norad_id": 41771, "name": "SKYSAT-C4", "group": "resource", "lat": 8.077731982643103, "lon": -153.35609684110952, "alt_km": 439.16530640483506, "timestamp": "2025-12-27T03:58:43.835456+00:00", "meta": {"OBJECT_NAME": "SKYSAT-C4", "OBJECT_ID": "2016-058B", "EPOCH": "2025-12-26T13:13:33.091680", "MEAN_MOTION": 15.4264534, "ECCENTRICITY": 0.0002638, "INCLINATION": 96.9364, "RA_OF_ASC_NODE": 25.0687, "ARG_OF_PERICENTER": 121.6623, "MEAN_ANOMALY": 238.4883, "EPHEMERIS_TYPE": 0, "CLASSIFICATION_TYPE": "U", "NORAD_CAT_ID": 41771, "ELEMENT_SET_NO": 999, "REV_AT_EPOCH": 51880, "BSTAR": 0.00036601, "MEAN_MOTION_DOT": 0.00015874, "MEAN_MOTION_DDOT": 0}, "tle": {"line1": "1 41771U 16058B   25360.55107745  .00015874  00000+0  36601-3 0  9993", "line2": "2 41771  96.9364  25.0687 0002638 121.6623 238.4883 15.42645340518809"}}, "geometry": {"type": "Point", "coordinates": [-153.35609684110952, 8.077731982643103]}}, {"type": "Feature", "properties": {"norad_id": 41772, "name": "SKYSAT-C5", "group": "resource", "lat": 12.60206030419223, "lon": 42.722717657185676, "alt_km": 467.2533286128255, "timestamp": "2025-12-27T03:58:43.835465+00:00", "meta": {"OBJECT_NAME": "SKYSAT-C5", "OBJECT_ID": "2016-058C", "EPOCH": "2025-12-26T16:57:56.362176", "MEAN_MOTION": 15.34129911, "ECCENTRICITY": 0.0004076, "INCLINATION": 97.0741, "RA_OF_ASC_NODE": 43.8739, "ARG_OF_PERICENTER": 223.4884, "MEAN_ANOMALY": 136.6039, "EPHEMERIS_TYPE": 0, "CLASSIFICATION_TYPE": "U", "NORAD_CAT_ID": 41772, "ELEMENT_SET_NO": 999, "REV_AT_EPOCH": 51730, "BSTAR": 0.00028723, "MEAN_MOTION_DOT": 9.416e-05, "MEAN_MOTION_DDOT": 0}, "tle": {"line1": "1 41772U 16058C   25360.70690234  .00009416  00000+0  28723-3 0  9992", "line2": "2 41772  97.0741  43.8739 0004076 223.4884 136.6039 15.34129911517303"}}, "geometry": {"type": "Point", "coordinates": [42.722717657185676, 12.60206030419223]}}, {"type": "Feature", "properties": {"norad_id": 41773, "name": "SKYSAT-C2", "group": "resource", "lat": -16.147778491923386, "lon": -156.96691424030354, "alt_km": 459.73976871753894, "timestamp": "2025-12-27T03:58:43.835474+00:00", "meta": {"OBJECT_NAME": "SKYSAT-C2", "OBJECT_ID": "2016-058D", "EPOCH": "2025-12-26T14:37:58.926720", "MEAN_MOTION": 15.37583734, "ECCENTRICITY": 0.0002572, "INCLINATION": 97.0353, "RA_OF_ASC_NODE": 24.5495, "ARG_OF_PERICENTER": 351.2382, "MEAN_ANOMALY": 8.8818, "EPHEMERIS_TYPE": 0, "CLASSIFICATION_TYPE": "U", "NORAD_CAT_ID": 41773, "ELEMENT_SET_NO": 999, "REV_AT_EPOCH": 51849, "BSTAR": 0.00034081, "MEAN_MOTION_DOT": 0.000125, "MEAN_MOTION_DDOT": 0}, "tle": {"line1": "1 41773U 16058D   25360.60970980  .00012500  00000+0  34081-3 0  9993", "line2": "2 41773  97.0353  24.5495 0002572 351.2382   8.8818 15.37583734518496"}}, "geometry": {"type": "Point", "coordinates": [-156.96691424030354, -16.147778491923386]}}, {"type": "Feature", "properties": {"norad_id": 41774, "name": "SKYSAT-C3", "group": "resource", "lat": 38.55091930046697, "lon": 28.681469755120784, "alt_km": 428.2386077684987, "timestamp": "2025-12-27T03:58:43.835484+00:00", "meta": {"OBJECT_NAME": "SKYSAT-C3", "OBJECT_ID": "2016-058E", "EPOCH": "2025-12-26T15:22:29.771040", "MEAN_MOTION": 15.44897562, "ECCENTRICITY": 0.0002158, "INCLINATION": 96.9285, "RA_OF_ASC_NODE": 33.7414, "ARG_OF_PERICENTER": 106.7357, "MEAN_ANOMALY": 253.413, "EPHEMERIS_TYPE": 0, "CLASSIFICATION_TYPE": "U", "NORAD_CAT_ID": 41774, "ELEMENT_SET_NO": 999, "REV_AT_EPOCH": 51940, "BSTAR": 0.00041358, "MEAN_MOTION_DOT": 0.00019372, "MEAN_MOTION_DDOT": 0}, "tle": {"line1": "1 41774U 16058E   25360.64062235  .00019372  00000+0  41358-3 0  9992", "line2": "2 41774  96.9285  33.7414 0002158 106.7357 253.4130 15.44897562519409"}}, "geometry": {"type": "Point", "coordinates": [28.681469755120784, 38.55091930046697]}}]}